$$SOE
2460154.500000000, A.D. 2023-Jul-29 00:00:00.0000, -2.693812561836141E+08, -2.245799599327375E+08, -2.067576367621803E+07,
2460161.500000000, A.D. 2023-Aug-05 00:00:00.0000, -2.610769028510981E+08, -2.328806599365835E+08, -2.084219816444153E+07,
2460168.500000000, A.D. 2023-Aug-12 00:00:00.0000, -2.524782238317914E+08, -2.409187626389256E+08, -2.098512850229269E+07,
2460175.500000000, A.D. 2023-Aug-19 00:00:00.0000, -2.435928141719903E+08, -2.486831991354165E+08, -2.110421859316616E+07,
2460182.500000000, A.D. 2023-Aug-26 00:00:00.0000, -2.344287154410742E+08, -2.561630551083845E+08, -2.119915513662592E+07,
2460189.500000000, A.D. 2023-Sep-02 00:00:00.0000, -2.249944183128338E+08, -2.633475900391315E+08, -2.126964872677757E+07,
2460196.500000000, A.D. 2023-Sep-09 00:00:00.0000, -2.152988643173212E+08, -2.702262572403789E+08, -2.131543497273973E+07,
2460203.500000000, A.D. 2023-Sep-16 00:00:00.0000, -2.053514465217456E+08, -2.767887247423222E+08, -2.133627565754777E+07,
2460210.500000000, A.D. 2023-Sep-23 00:00:00.0000, -1.951620086496381E+08, -2.830248967147083E+08, -2.133195994602044E+07,
2460217.500000000, A.D. 2023-Sep-30 00:00:00.0000, -1.847408429026375E+08, -2.889249341960961E+08, -2.130230550844149E+07,
2460224.500000000, A.D. 2023-Oct-07 00:00:00.0000, -1.740986887620563E+08, -2.944792756270146E+08, -2.124715938339718E+07,
2460231.500000000, A.D. 2023-Oct-14 00:00:00.0000, -1.632467316537734E+08, -2.996786604486279E+08, -2.116639894075938E+07,
2460238.500000000, A.D. 2023-Oct-21 00:00:00.0000, -1.521965981749185E+08, -3.045141541078619E+08, -2.105993310471539E+07,
2460245.500000000, A.D. 2023-Oct-28 00:00:00.0000, -1.409603492369797E+08, -3.089771721433486E+08, -2.092770351548211E+07,
2460252.500000000, A.D. 2023-Nov-04 00:00:00.0000, -1.295504723074532E+08, -3.130595040465673E+08, -2.076968557126838E+07,
2460259.500000000, A.D. 2023-Nov-11 00:00:00.0000, -1.179798725071110E+08, -3.167533374124910E+08, -2.058588940861073E+07,
2460266.500000000, A.D. 2023-Nov-18 00:00:00.0000, -1.062618622809501E+08, -3.200512823499781E+08, -2.037636083915888E+07,
2460273.500000000, A.D. 2023-Nov-25 00:00:00.0000, -9.441014951196985E+07, -3.229463960291113E+08, -2.014118224063003E+07,
2460280.500000000, A.D. 2023-Dec-02 00:00:00.0000, -8.243882399910694E+07, -3.254322072709814E+08, -1.988047339835712E+07,
2460287.500000000, A.D. 2023-Dec-09 00:00:00.0000, -7.036234218004663E+07, -3.275027411256121E+08, -1.959439230196673E+07,
2460294.500000000, A.D. 2023-Dec-16 00:00:00.0000, -5.819550977840789E+07, -3.291525433037010E+08, -1.928313591481304E+07,
2460301.500000000, A.D. 2023-Dec-23 00:00:00.0000, -4.595346200264901E+07, -3.303767036453898E+08, -1.894694088416754E+07,
2460308.500000000, A.D. 2023-Dec-30 00:00:00.0000, -3.365164262257683E+07, -3.311708774401286E+08, -1.858608397573121E+07,
2460315.500000000, A.D. 2024-Jan-06 00:00:00.0000, -2.130578369139916E+07, -3.315313068145348E+08, -1.820088225527684E+07,
2460322.500000000, A.D. 2024-Jan-13 00:00:00.0000, -8.931882746570498E+06, -3.314548438490410E+08, -1.779169344914572E+07,
2460329.500000000, A.D. 2024-Jan-20 00:00:00.0000, 3.453823714352218E+06, -3.309389721930833E+08, -1.735891633717133E+07,
2460336.500000000, A.D. 2024-Jan-27 00:00:00.0000, 1.583488841985410E+07, -3.299818263784715E+08, -1.690299093218006E+07,
2460343.500000000, A.D. 2024-Feb-03 00:00:00.0000, 2.819468269627440E+07, -3.285822096297120E+08, -1.642439847817253E+07,
2460350.500000000, A.D. 2024-Feb-10 00:00:00.0000, 4.051642723985521E+07, -3.267396103137521E+08, -1.592366131077550E+07,
2460357.500000000, A.D. 2024-Feb-17 00:00:00.0000, 5.278322434847689E+07, -3.244542168745286E+08, -1.540134258684446E+07,
2460364.500000000, A.D. 2024-Feb-24 00:00:00.0000, 6.497809155299284E+07, -3.217269310924659E+08, -1.485804588058044E+07,
2460371.500000000, A.D. 2024-Mar-02 00:00:00.0000, 7.708399656560442E+07, -3.185593795588875E+08, -1.429441464725207E+07,
2460378.500000000, A.D. 2024-Mar-09 00:00:00.0000, 8.908389355752943E+07, -3.149539232896656E+08, -1.371113156865758E+07,
2460385.500000000, A.D. 2024-Mar-16 00:00:00.0000, 1.009607610233884E+08, -3.109136651485621E+08, -1.310891779787675E+07,
2460392.500000000, A.D. 2024-Mar-23 00:00:00.0000, 1.126976409830291E+08, -3.064424538519316E+08, -1.248853200264643E+07,
2460399.500000000, A.D. 2024-Mar-30 00:00:00.0000, 1.242776771234838E+08, -3.015448844818180E+08, -1.185076900537939E+07,
2460406.500000000, A.D. 2024-Apr-06 00:00:00.0000, 1.356841519658169E+08, -2.962262987936994E+08, -1.119645832090621E+07,
2460413.500000000, A.D. 2024-Apr-13 00:00:00.0000, 1.469005264222474E+08, -2.904927844178564E+08, -1.052646285200512E+07,
2460420.500000000, A.D. 2024-Apr-20 00:00:00.0000, 1.579104805935189E+08, -2.843511702281636E+08, -9.841677439633280E+06,
2460427.500000000, A.D. 2024-Apr-27 00:00:00.0000, 1.686979540832275E+08, -2.778090184026449E+08, -9.143027178452075E+06,
2460434.500000000, A.D. 2024-May-04 00:00:00.0000, 1.792471857067073E+08, -2.708746138572754E+08, -8.431465568379864E+06,
2460441.500000000, A.D. 2024-May-11 00:00:00.0000, 1.895427526206580E+08, -2.635569511521011E+08, -7.707972538875923E+06,
2460448.500000000, A.D. 2024-May-18 00:00:00.0000, 1.995696087422633E+08, -2.558657188663119E+08, -6.973552359423846E+06,
2460455.500000000, A.D. 2024-May-25 00:00:00.0000, 2.093131222688234E+08, -2.478112814879807E+08, -6.229231447960332E+06,
2460462.500000000, A.D. 2024-Jun-01 00:00:00.0000, 2.187591121462652E+08, -2.394046589327723E+08, -5.476056097580343E+06,
2460469.500000000, A.D. 2024-Jun-08 00:00:00.0000, 2.278938835294836E+08, -2.306575037906430E+08, -4.715090157049358E+06,
2460476.500000000, A.D. 2024-Jun-15 00:00:00.0000, 2.367042624417996E+08, -2.215820758555361E+08, -3.947412668521926E+06,
2460483.500000000, A.D. 2024-Jun-22 00:00:00.0000, 2.451776284440610E+08, -2.121912128864837E+08, -3.174115285858199E+06,
2460490.500000000, A.D. 2024-Jun-29 00:00:00.0000, 2.533019430137030E+08, -2.024982995595340E+08, -2.396299440362200E+06,
2460497.500000000, A.D. 2024-Jul-06 00:00:00.0000, 2.610657761125120E+08, -1.925172372303032E+08, -1.615073712071583E+06,
2460504.500000000, A.D. 2024-Jul-13 00:00:00.0000, 2.684583327456352E+08, -1.822624118467606E+08, -8.315513683421910E+05,
2460511.500000000, A.D. 2024-Jul-20 00:00:00.0000, 2.754694773986394E+08, -1.717486590442399E+08, -4.684780733078718E+04,
2460518.500000000, A.D. 2024-Jul-27 00:00:00.0000, 2.820897555861598E+08, -1.609912275748044E+08, 7.379220617411509E+05,
2460525.500000000, A.D. 2024-Aug-03 00:00:00.0000, 2.883104126929986E+08, -1.500057416471853E+08, 1.521646432280570E+06,
2460532.500000000, A.D. 2024-Aug-10 00:00:00.0000, 2.941234102011548E+08, -1.388081623900286E+08, 2.303219179093175E+06,
2460539.500000000, A.D. 2024-Aug-17 00:00:00.0000, 2.995214392978333E+08, -1.274147486304286E+08, 3.081542386831664E+06,
2460546.500000000, A.D. 2024-Aug-24 00:00:00.0000, 3.044979318589200E+08, -1.158420172272776E+08, 3.855528811411768E+06,
2460553.500000000, A.D. 2024-Aug-31 00:00:00.0000, 3.090470689061781E+08, -1.041067032383070E+08, 4.624104246622793E+06,
2460560.500000000, A.D. 2024-Sep-07 00:00:00.0000, 3.131637869014911E+08, -9.222572000505911E+07, 5.386209760658905E+06,
2460567.500000000, A.D. 2024-Sep-14 00:00:00.0000, 3.168437819852671E+08, -8.021611836042565E+07, 6.140803865387972E+06,
2460574.500000000, A.D. 2024-Sep-21 00:00:00.0000, 3.200835101813575E+08, -6.809504474446395E+07, 6.886864829381853E+06,
2460581.500000000, A.D. 2024-Sep-28 00:00:00.0000, 3.228801831479819E+08, -5.587970165168023E+07, 7.623392907019151E+06,
2460588.500000000, A.D. 2024-Oct-05 00:00:00.0000, 3.252317632226621E+08, -4.358731059012479E+07, 8.349412138860913E+06,
2460595.500000000, A.D. 2024-Oct-12 00:00:00.0000, 3.271369574988632E+08, -3.123507474278204E+07, 9.063971993649038E+06,
2460602.500000000, A.D. 2024-Oct-19 00:00:00.0000, 3.285952092982600E+08, -1.884014176488764E+07, 9.766148985981289E+06,
2460609.500000000, A.D. 2024-Oct-26 00:00:00.0000, 3.296066871303756E+08, -6.419567669782083E+06, 1.045504820383158E+07,
2460616.500000000, A.D. 2024-Nov-02 00:00:00.0000, 3.301722715285107E+08, 6.009717912273090E+06, 1.112980470784365E+07,
2460623.500000000, A.D. 2024-Nov-09 00:00:00.0000, 3.302935399976881E+08, 1.843094500337597E+07, 1.178958479393982E+07,
2460630.500000000, A.D. 2024-Nov-16 00:00:00.0000, 3.299727502470191E+08, 3.082753497216661E+07, 1.243358711674711E+07,
2460637.500000000, A.D. 2024-Nov-23 00:00:00.0000, 3.292128219063351E+08, 4.318313051431506E+07, 1.306104366641596E+07,
2460644.500000000, A.D. 2024-Nov-30 00:00:00.0000, 3.280173170912130E+08, 5.548162379989771E+07, 1.367122057770871E+07,
2460651.500000000, A.D. 2024-Dec-07 00:00:00.0000, 3.263904203856518E+08, 6.770718314267251E+07, 1.426341876799326E+07,
2460658.500000000, A.D. 2024-Dec-14 00:00:00.0000, 3.243369176940204E+08, 7.984427936991803E+07, 1.483697456794119E+07,
2460665.500000000, A.D. 2024-Dec-21 00:00:00.0000, 3.218621717915456E+08, 9.187771063068818E+07, 1.539126045933708E+07,
2460672.500000000, A.D. 2024-Dec-28 00:00:00.0000, 3.189720967002102E+08, 1.037926226646833E+08, 1.592568550079372E+07,
2460679.500000000, A.D. 2025-Jan-04 00:00:00.0000, 3.156731336346470E+08, 1.155745269100610E+08, 1.643969540221950E+07,
2460686.500000000, A.D. 2025-Jan-11 00:00:00.0000, 3.119722268449913E+08, 1.272093181250428E+08, 1.693277255782524E+07,
2460693.500000000, A.D. 2025-Jan-18 00:00:00.0000, 3.078767985858808E+08, 1.386832906252251E+08, 1.740443605426302E+07,
2460700.500000000, A.D. 2025-Jan-25 00:00:00.0000, 3.033947235903038E+08, 1.499831526891810E+08, 1.785424159948026E+07,
2460707.500000000, A.D. 2025-Feb-01 00:00:00.0000, 2.985343033610146E+08, 1.610960391387500E+08, 1.828178135853336E+07,
2460714.500000000, A.D. 2025-Feb-08 00:00:00.0000, 2.933042404513558E+08, 1.720095221600279E+08, 1.868668369863778E+07,
2460721.500000000, A.D. 2025-Feb-15 00:00:00.0000, 2.877136128695862E+08, 1.827116203999873E+08, 1.906861284542678E+07,
$$EOE